start=new Date('2023-02-25T00:00:00.000Z').valueOf();
sats=[{"OBJECT_TYPE":"PAYLOAD","MEAN_ANOMALY":"251.6200","OBJECT_ID":"2021-125X","CENTER_NAME":"EARTH","SITE":"AFWTR","COUNTRY_CODE":"US","EPOCH":"2023-02-24T20:09:56.982240","TIME_SYSTEM":"UTC","REF_FRAME":"TEME","MEAN_MOTION_DDOT":"0.0000000000000","PERIOD":"95.437","TLE_LINE1":"1 50177U 21125X   23055.84024285  .00014588  00000-0  93250-3 0  9997","SEMIMAJOR_AXIS":"6917.853","BSTAR":"0.00093250000000","TLE_LINE2":"2 50177  53.2142 186.9368 0001212 108.4923 251.6200 15.08849027 69200","RA_OF_ASC_NODE":"186.9368","GP_ID":"226777613","ECCENTRICITY":"0.00012120","OBJECT_NAME":"STARLINK-3282","ELEMENT_SET_NO":"999","ARG_OF_PERICENTER":"108.4923","FILE":"3835059","DECAY_DATE":null,"NORAD_CAT_ID":"50177","CLASSIFICATION_TYPE":"U","EPHEMERIS_TYPE":"0","REV_AT_EPOCH":"6920","APOAPSIS":"540.556","MEAN_ELEMENT_THEORY":"SGP4","RCS_SIZE":"LARGE","LAUNCH_DATE":"2021-12-18","PERIAPSIS":"538.879","INCLINATION":"53.2142","MEAN_MOTION":"15.08849027","MEAN_MOTION_DOT":"0.00014588"},{"TIME_SYSTEM":"UTC","REF_FRAME":"TEME","MEAN_MOTION_DDOT":"0.0000000000000","SITE":"AFWTR","EPOCH":"2023-02-24T14:25:29.401536","COUNTRY_CODE":"US","OBJECT_ID":"2021-125Y","CENTER_NAME":"EARTH","OBJECT_TYPE":"PAYLOAD","MEAN_ANOMALY":"256.6174","APOAPSIS":"540.383","EPHEMERIS_TYPE":"0","REV_AT_EPOCH":"6920","RCS_SIZE":"LARGE","MEAN_ELEMENT_THEORY":"SGP4","PERIAPSIS":"539.065","INCLINATION":"53.2167","LAUNCH_DATE":"2021-12-18","MEAN_MOTION_DOT":"0.00001819","MEAN_MOTION":"15.08846969","DECAY_DATE":null,"CLASSIFICATION_TYPE":"U","NORAD_CAT_ID":"50178","RA_OF_ASC_NODE":"188.0083","OBJECT_NAME":"STARLINK-3284","ECCENTRICITY":"0.00009530","GP_ID":"226778363","ARG_OF_PERICENTER":"103.4924","ELEMENT_SET_NO":"999","FILE":"3835059","PERIOD":"95.437","SEMIMAJOR_AXIS":"6917.859","TLE_LINE1":"1 50178U 21125Y   23055.60103474  .00001819  00000-0  13232-3 0  9995","BSTAR":"0.00013232000000","TLE_LINE2":"2 50178  53.2167 188.0083 0000953 103.4924 256.6174 15.08846969 69209"},{"MEAN_MOTION_DDOT":"0.0000000000000","REF_FRAME":"TEME","TIME_SYSTEM":"UTC","SITE":"AFWTR","COUNTRY_CODE":"US","EPOCH":"2023-02-24T19:59:21.295968","CENTER_NAME":"EARTH","OBJECT_ID":"2021-125Z","MEAN_ANOMALY":"270.2842","OBJECT_TYPE":"PAYLOAD","MEAN_ELEMENT_THEORY":"SGP4","RCS_SIZE":"LARGE","EPHEMERIS_TYPE":"0","REV_AT_EPOCH":"6920","APOAPSIS":"540.684","MEAN_MOTION":"15.08848628","MEAN_MOTION_DOT":"0.00009633","LAUNCH_DATE":"2021-12-18","INCLINATION":"53.2141","PERIAPSIS":"538.754","DECAY_DATE":null,"NORAD_CAT_ID":"50179","CLASSIFICATION_TYPE":"U","GP_ID":"226779111","ECCENTRICITY":"0.00013950","OBJECT_NAME":"STARLINK-3283","RA_OF_ASC_NODE":"186.9726","FILE":"3835059","ARG_OF_PERICENTER":"89.8310","ELEMENT_SET_NO":"999","TLE_LINE1":"1 50179U 21125Z   23055.83288537  .00009633  00000-0  62233-3 0  9992","SEMIMAJOR_AXIS":"6917.854","PERIOD":"95.437","BSTAR":"0.00062233000000","TLE_LINE2":"2 50179  53.2141 186.9726 0001395  89.8310 270.2842 15.08848628 69208"},{"PERIOD":"95.436","TLE_LINE1":"1 50180U 21125AA  23055.88536010  .00013393  00000-0  85753-3 0  9991","SEMIMAJOR_AXIS":"6917.826","TLE_LINE2":"2 50180  53.2144 186.7469 0001453  93.2579 266.8580 15.08857761 66122","BSTAR":"0.00085753000000","RA_OF_ASC_NODE":"186.7469","GP_ID":"226749824","ECCENTRICITY":"0.00014530","OBJECT_NAME":"STARLINK-3265","ARG_OF_PERICENTER":"93.2579","ELEMENT_SET_NO":"999","FILE":"3834870","DECAY_DATE":null,"NORAD_CAT_ID":"50180","CLASSIFICATION_TYPE":"U","EPHEMERIS_TYPE":"0","REV_AT_EPOCH":"6612","APOAPSIS":"540.696","RCS_SIZE":"LARGE","MEAN_ELEMENT_THEORY":"SGP4","LAUNCH_DATE":"2021-12-18","PERIAPSIS":"538.686","INCLINATION":"53.2144","MEAN_MOTION":"15.08857761","MEAN_MOTION_DOT":"0.00013393","OBJECT_TYPE":"PAYLOAD","MEAN_ANOMALY":"266.8580","OBJECT_ID":"2021-125AA","CENTER_NAME":"EARTH","SITE":"AFWTR","COUNTRY_CODE":"US","EPOCH":"2023-02-24T21:14:55.112640","TIME_SYSTEM":"UTC","REF_FRAME":"TEME","MEAN_MOTION_DDOT":"0.0000000000000"},{"CENTER_NAME":"EARTH","OBJECT_ID":"2021-125AB","MEAN_ANOMALY":"293.1808","OBJECT_TYPE":"PAYLOAD","REF_FRAME":"TEME","MEAN_MOTION_DDOT":"0.0000000000000","TIME_SYSTEM":"UTC","EPOCH":"2023-02-24T17:53:32.834688","COUNTRY_CODE":"US","SITE":"AFWTR","FILE":"3833319","ELEMENT_SET_NO":"999","ARG_OF_PERICENTER":"66.9342","OBJECT_NAME":"STARLINK-3285","GP_ID":"226719760","ECCENTRICITY":"0.00014990","RA_OF_ASC_NODE":"187.3752","BSTAR":"0.00078097000000","TLE_LINE2":"2 50181  53.2142 187.3752 0001499  66.9342 293.1808 15.08809310 68707","SEMIMAJOR_AXIS":"6917.974","TLE_LINE1":"1 50181U 21125AB  23055.74551892  .00012153  00000-0  78097-3 0  9998","PERIOD":"95.439","MEAN_MOTION_DOT":"0.00012153","MEAN_MOTION":"15.08809310","INCLINATION":"53.2142","PERIAPSIS":"538.802","LAUNCH_DATE":"2021-12-18","MEAN_ELEMENT_THEORY":"SGP4","RCS_SIZE":"LARGE","APOAPSIS":"540.876","EPHEMERIS_TYPE":"0","REV_AT_EPOCH":"6870","CLASSIFICATION_TYPE":"U","NORAD_CAT_ID":"50181","DECAY_DATE":null},{"RA_OF_ASC_NODE":"187.4014","ECCENTRICITY":"0.00011270","GP_ID":"226778862","OBJECT_NAME":"STARLINK-3277","ELEMENT_SET_NO":"999","ARG_OF_PERICENTER":"99.5490","FILE":"3835059","PERIOD":"95.437","TLE_LINE1":"1 50182U 21125AC  23055.73720095  .00001371  00000-0  10422-3 0  9999","SEMIMAJOR_AXIS":"6917.877","TLE_LINE2":"2 50182  53.2152 187.4014 0001127  99.5490 260.5630 15.08841247 69229","BSTAR":"0.00010422000000","EPHEMERIS_TYPE":"0","REV_AT_EPOCH":"6922","APOAPSIS":"540.521","MEAN_ELEMENT_THEORY":"SGP4","RCS_SIZE":"LARGE","LAUNCH_DATE":"2021-12-18","PERIAPSIS":"538.962","INCLINATION":"53.2152","MEAN_MOTION":"15.08841247","MEAN_MOTION_DOT":"0.00001371","DECAY_DATE":null,"NORAD_CAT_ID":"50182","CLASSIFICATION_TYPE":"U","OBJECT_ID":"2021-125AC","CENTER_NAME":"EARTH","OBJECT_TYPE":"PAYLOAD","MEAN_ANOMALY":"260.5630","TIME_SYSTEM":"UTC","MEAN_MOTION_DDOT":"0.0000000000000","REF_FRAME":"TEME","SITE":"AFWTR","COUNTRY_CODE":"US","EPOCH":"2023-02-24T17:41:34.162080"},{"DECAY_DATE":null,"NORAD_CAT_ID":"50183","CLASSIFICATION_TYPE":"U","REV_AT_EPOCH":"6610","EPHEMERIS_TYPE":"0","APOAPSIS":"540.629","RCS_SIZE":"LARGE","MEAN_ELEMENT_THEORY":"SGP4","LAUNCH_DATE":"2021-12-18","INCLINATION":"53.2146","PERIAPSIS":"538.812","MEAN_MOTION":"15.08848228","MEAN_MOTION_DOT":"0.00019010","PERIOD":"95.437","TLE_LINE1":"1 50183U 21125AD  23055.74088515  .00019010  00000-0  12090-2 0  9996","SEMIMAJOR_AXIS":"6917.855","TLE_LINE2":"2 50183  53.2146 187.3869 0001313  80.6249 279.4891 15.08848228 66108","BSTAR":"0.00120900000000","RA_OF_ASC_NODE":"187.3869","GP_ID":"226719802","ECCENTRICITY":"0.00013130","OBJECT_NAME":"STARLINK-3281","ARG_OF_PERICENTER":"80.6249","ELEMENT_SET_NO":"999","FILE":"3833321","SITE":"AFWTR","COUNTRY_CODE":"US","EPOCH":"2023-02-24T17:46:52.476960","TIME_SYSTEM":"UTC","MEAN_MOTION_DDOT":"0.0000000000000","REF_FRAME":"TEME","OBJECT_TYPE":"PAYLOAD","MEAN_ANOMALY":"279.4891","OBJECT_ID":"2021-125AD","CENTER_NAME":"EARTH"},{"CENTER_NAME":"EARTH","OBJECT_ID":"2021-125AF","MEAN_ANOMALY":"265.5167","OBJECT_TYPE":"PAYLOAD","MEAN_MOTION_DDOT":"0.0000000000000","REF_FRAME":"TEME","TIME_SYSTEM":"UTC","EPOCH":"2023-02-24T16:22:05.117952","COUNTRY_CODE":"US","SITE":"AFWTR","FILE":"3835059","ELEMENT_SET_NO":"999","ARG_OF_PERICENTER":"94.5961","OBJECT_NAME":"STARLINK-3279","ECCENTRICITY":"0.00011860","GP_ID":"226777365","RA_OF_ASC_NODE":"187.6508","BSTAR":"0.00141310000000","TLE_LINE2":"2 50185  53.2144 187.6508 0001186  94.5961 265.5167 15.08846274 69186","SEMIMAJOR_AXIS":"6917.861","TLE_LINE1":"1 50185U 21125AF  23055.68200368  .00022277  00000-0  14131-2 0  9990","PERIOD":"95.437","MEAN_MOTION_DOT":"0.00022277","MEAN_MOTION":"15.08846274","INCLINATION":"53.2144","PERIAPSIS":"538.906","LAUNCH_DATE":"2021-12-18","MEAN_ELEMENT_THEORY":"SGP4","RCS_SIZE":"LARGE","APOAPSIS":"540.547","REV_AT_EPOCH":"6918","EPHEMERIS_TYPE":"0","CLASSIFICATION_TYPE":"U","NORAD_CAT_ID":"50185","DECAY_DATE":null},{"OBJECT_ID":"2021-125AG","CENTER_NAME":"EARTH","OBJECT_TYPE":"PAYLOAD","MEAN_ANOMALY":"255.2088","TIME_SYSTEM":"UTC","REF_FRAME":"TEME","MEAN_MOTION_DDOT":"0.0000000000000","COUNTRY_CODE":"US","EPOCH":"2023-02-24T19:52:43.524192","SITE":"AFWTR","ARG_OF_PERICENTER":"104.9031","ELEMENT_SET_NO":"999","FILE":"3835059","RA_OF_ASC_NODE":"196.9939","ECCENTRICITY":"0.00011440","GP_ID":"226777614","OBJECT_NAME":"STARLINK-3274","TLE_LINE2":"2 50186  53.2140 196.9939 0001144 104.9031 255.2088 15.08847162 69053","BSTAR":"0.00034245000000","PERIOD":"95.437","TLE_LINE1":"1 50186U 21125AG  23055.82828153  .00005167  00000-0  34245-3 0  9993","SEMIMAJOR_AXIS":"6917.858","LAUNCH_DATE":"2021-12-18","PERIAPSIS":"538.932","INCLINATION":"53.2140","MEAN_MOTION":"15.08847162","MEAN_MOTION_DOT":"0.00005167","EPHEMERIS_TYPE":"0","REV_AT_EPOCH":"6905","APOAPSIS":"540.515","MEAN_ELEMENT_THEORY":"SGP4","RCS_SIZE":"LARGE","NORAD_CAT_ID":"50186","CLASSIFICATION_TYPE":"U","DECAY_DATE":null},{"GP_ID":"226778364","ECCENTRICITY":"0.00015890","OBJECT_NAME":"STARLINK-3272","RA_OF_ASC_NODE":"176.8690","FILE":"3835059","ARG_OF_PERICENTER":"57.5208","ELEMENT_SET_NO":"999","TLE_LINE1":"1 50187U 21125AH  23055.85588400  .00024886  00000-0  15753-2 0  9996","SEMIMAJOR_AXIS":"6917.817","PERIOD":"95.436","TLE_LINE2":"2 50187  53.2159 176.8690 0001589  57.5208 302.5937 15.08860802 69322","BSTAR":"0.00157530000000","MEAN_ELEMENT_THEORY":"SGP4","RCS_SIZE":"LARGE","EPHEMERIS_TYPE":"0","REV_AT_EPOCH":"6932","APOAPSIS":"540.781","MEAN_MOTION":"15.08860802","MEAN_MOTION_DOT":"0.00024886","LAUNCH_DATE":"2021-12-18","INCLINATION":"53.2159","PERIAPSIS":"538.583","DECAY_DATE":null,"NORAD_CAT_ID":"50187","CLASSIFICATION_TYPE":"U","CENTER_NAME":"EARTH","OBJECT_ID":"2021-125AH","MEAN_ANOMALY":"302.5937","OBJECT_TYPE":"PAYLOAD","REF_FRAME":"TEME","MEAN_MOTION_DDOT":"0.0000000000000","TIME_SYSTEM":"UTC","SITE":"AFWTR","COUNTRY_CODE":"US","EPOCH":"2023-02-24T20:32:28.377600"}];
